OBJECT_NAME,OBJECT_ID,EPOCH,MEAN_MOTION,ECCENTRICITY,INCLINATION,RA_OF_ASC_NODE,ARG_OF_PERICENTER,MEAN_ANOMALY,EPHEMERIS_TYPE,CLASSIFICATION_TYPE,NORAD_CAT_ID,ELEMENT_SET_NO,REV_AT_EPOCH,BSTAR,MEAN_MOTION_DOT,MEAN_MOTION_DDOT
ONEWEB-0296,2021-075L,2026-07-16T10:23:09.863520,13.12442595,.00020339,87.8971,344.8532,87.5842,272.5519,0,U,49085,999,23841,-.94248901E-3,-.326E-5,0
ONEWEB-0297,2021-075M,2026-07-16T11:07:04.999584,13.12444027,.0001866,87.8961,344.8543,92.4900,267.6442,0,U,49086,999,23902,.70097734E-3,.265E-5,0
ONEWEB-0298,2021-075N,2026-07-16T12:05:00.964032,13.17648914,.00017598,87.9146,0.0353,91.6218,268.5115,0,U,49087,999,23748,.11427409E-3,.57E-6,0
ONEWEB-0299,2021-075P,2026-07-16T12:07:13.322784,13.17648339,.00018464,87.9156,0.0181,88.1291,272.0052,0,U,49088,999,23746,.16524846E-4,.19E-6,0
ONEWEB-0300,2021-075Q,2026-07-16T10:56:06.187488,13.12443545,.00014797,87.8973,344.8381,95.1044,265.0254,0,U,49089,999,23904,-.13451611E-3,-.36E-6,0
ONEWEB-0301,2021-075R,2026-07-16T10:32:54.948768,13.12443270,.00015202,87.8971,344.8390,101.5961,258.5338,0,U,49090,999,23840,-.1234379E-2,-.431E-5,0
ONEWEB-0302,2021-075S,2026-07-16T10:13:24.824928,13.12440968,.00021845,87.8968,344.8538,94.5902,265.5476,0,U,49091,999,23838,-.50655451E-3,-.17E-5,0
ONEWEB-0304,2021-075T,2026-07-16T11:30:46.302048,13.17648070,.00019106,87.9141,0.0425,87.4556,272.6794,0,U,49092,999,23743,.152734E-3,.72E-6,0
ONEWEB-0305,2021-075U,2026-07-16T11:21:03.159936,13.17648139,.00018821,87.9155,0.0306,80.1461,279.9882,0,U,49093,999,23746,.54849401E-4,.34E-6,0
ONEWEB-0308,2021-075V,2026-07-16T10:03:38.917152,13.12441493,.000187,87.8973,344.8477,97.6991,262.4350,0,U,49094,999,23839,.13555656E-3,.61E-6,0
ONEWEB-0309,2021-075W,2026-07-16T11:25:54.004800,13.17650896,.00023773,87.9147,0.0360,92.4678,267.6726,0,U,49095,999,23743,-.6074755E-4,-.11E-6,0
ONEWEB-0310,2021-075X,2026-07-16T10:25:35.703264,13.12443664,.00018991,87.8964,344.8635,97.2236,262.9108,0,U,49096,999,23902,-.8306122E-3,-.286E-5,0
ONEWEB-0311,2021-075Y,2026-07-16T11:35:37.884768,13.17648100,.00017238,87.9146,0.0348,78.9250,281.2075,0,U,49097,999,23748,-.13466575E-3,-.39E-6,0
ONEWEB-0312,2021-075Z,2026-07-16T11:57:30.483072,13.17649035,.00020473,87.9143,0.0422,83.7623,276.3741,0,U,49098,999,23746,.15263958E-3,.72E-6,0
ONEWEB-0313,2021-075AA,2026-07-16T12:04:34.918752,13.17650089,.00018263,87.9143,0.0461,89.4961,270.6380,0,U,49099,999,23745,.85665346E-4,.46E-6,0
ONEWEB-0314,2021-075AB,2026-07-16T11:16:10.643232,13.17651304,.00020472,87.9156,0.0286,82.5656,277.5709,0,U,49100,999,23742,.24913395E-4,.23E-6,0
ONEWEB-0315,2021-075AC,2026-07-16T09:46:34.838688,13.12442023,.00015778,87.8973,344.8354,86.1021,274.0288,0,U,49101,999,23900,.98048779E-3,.365E-5,0
ONEWEB-0316,2021-075AD,2026-07-16T08:54:49.198464,13.18686862,.00019523,87.9194,329.6522,98.8305,261.3048,0,U,49102,999,24105,.11653419E-4,.18E-6,0
ONEWEB-0317,2021-075AE,2026-07-16T09:51:27.542880,13.12442038,.00024881,87.8967,344.8584,107.5640,252.5760,0,U,49103,999,23902,.9350119E-3,.349E-5,0
ONEWEB-0318,2021-075AF,2026-07-16T14:17:33.159552,13.18686848,.00018183,87.9198,329.6102,94.0063,266.1277,0,U,49104,999,24104,.54115489E-4,.34E-6,0
ONEWEB-0319,2021-075AG,2026-07-16T11:38:03.483456,13.17648524,.00015223,87.9144,0.0395,80.2256,279.9047,0,U,49105,999,23746,.17966766E-3,.83E-6,0
ONEWEB-0323,2021-075AH,2026-07-16T09:24:37.489248,13.12443983,.00016199,87.8972,344.8439,79.3671,280.7640,0,U,49106,999,23838,.11317116E-2,.42E-5,0
ONEWEB-0329,2021-075AJ,2026-07-16T11:50:11.704992,13.17648698,.00019179,87.9146,0.0384,87.9030,272.2321,0,U,49107,999,23744,-.54971564E-3,-.201E-5,0
ONEWEB-0330,2021-075AK,2026-07-16T11:55:14.871360,13.17647124,.000202,87.9148,0.0492,89.6830,270.4533,0,U,49108,999,23748,.6617424E-5,.15E-6,0
ONEWEB-0292,2021-083A,2026-07-16T13:40:57.046080,13.13469794,.00018245,87.8981,314.3905,97.1824,262.9513,0,U,49186,999,23478,-.19126485E-3,-.57E-6,0
ONEWEB-0303,2021-083B,2026-07-16T10:34:09.652800,13.18683961,.00018038,87.9195,329.6391,94.0833,266.0506,0,U,49187,999,23383,-.10884294E-3,-.3E-6,0
ONEWEB-0306,2021-083C,2026-07-16T08:30:20.652480,13.18684857,.0002108,87.9199,329.6455,101.0240,259.1129,0,U,49188,999,23386,-.64385384E-4,-.12E-6,0
ONEWEB-0307,2021-083D,2026-07-16T13:32:24.762336,13.13468308,.00019112,87.8981,314.3893,96.5661,263.5685,0,U,49189,999,23478,.17493973E-3,.77E-6,0
ONEWEB-0320,2021-083E,2026-07-16T08:59:27.453984,13.18687888,.00019451,87.9187,329.6562,99.3318,260.8034,0,U,49190,999,23382,.20612853E-3,.94E-6,0
ONEWEB-0321,2021-083F,2026-07-16T14:16:19.979616,13.20772312,.00021893,87.9184,268.5745,103.7215,256.4163,0,U,49191,999,24071,.16433159E-3,.8E-6,0
ONEWEB-0322,2021-083G,2026-07-16T07:57:14.958432,13.13470469,.00020815,87.8978,314.4353,112.8987,247.2362,0,U,49192,999,23474,.46903218E-3,.184E-5,0
ONEWEB-0324,2021-083H,2026-07-16T10:09:53.803296,13.18686762,.00020798,87.9199,329.6373,95.5502,264.5867,0,U,49193,999,23385,-.216138E-6,.13E-6,0
ONEWEB-0325,2021-083J,2026-07-16T10:14:44.331936,13.18687049,.00018285,87.9190,329.6421,99.8499,260.2840,0,U,49194,999,23386,-.72952053E-4,-.16E-6,0
ONEWEB-0326,2021-083K,2026-07-16T14:15:20.539008,13.18686281,.00016912,87.9198,329.6090,94.3415,265.7910,0,U,49195,999,23387,.8621117E-5,.16E-6,0
ONEWEB-0327,2021-083L,2026-07-16T14:14:56.328864,13.18686274,.00015077,87.9190,329.6110,95.6309,264.4995,0,U,49196,999,23389,.9412824E-4,.5E-6,0
ONEWEB-0328,2021-083M,2026-07-16T09:32:19.312800,13.13469455,.00020651,87.8989,314.3982,97.4979,262.6384,0,U,49197,999,23473,.86968269E-3,.33E-5,0
ONEWEB-0331,2021-083N,2026-07-16T08:37:37.557408,13.18685143,.00017076,87.9200,329.6494,89.7323,270.4005,0,U,49198,999,23385,.83943822E-4,.46E-6,0
ONEWEB-0333,2021-083P,2026-07-16T07:35:18.727872,13.13469934,.00018726,87.8980,314.4380,100.4468,259.6872,0,U,49199,999,23473,.9764247E-3,.369E-5,0
ONEWEB-0334,2021-083Q,2026-07-16T14:36:55.717344,13.20768438,.00025599,87.9184,268.5823,115.7493,244.3905,0,U,49200,999,24067,.20762331E-3,.97E-6,0
ONEWEB-0335,2021-083R,2026-07-16T14:46:46.758144,13.13469478,.00018269,87.8977,314.3756,95.6830,264.4508,0,U,49201,999,23478,.79322935E-3,.302E-5,0
ONEWEB-0336,2021-083S,2026-07-16T14:05:19.585536,13.13469609,.00018466,87.8976,314.3766,91.3982,268.7359,0,U,49202,999,23477,-.61568042E-3,-.212E-5,0
ONEWEB-0337,2021-083T,2026-07-16T14:19:46.311456,13.13469478,.00020639,87.8976,314.3798,94.5122,265.6243,0,U,49203,999,23477,-.37243576E-3,-.123E-5,0
ONEWEB-0338,2021-083U,2026-07-16T06:47:50.522496,13.20770768,.00021675,87.9179,268.6481,107.0610,253.0761,0,U,49204,999,24065,.19963077E-3,.94E-6,0
ONEWEB-0339,2021-083V,2026-07-16T09:03:03.949056,13.13469047,.00021584,87.8977,314.4173,106.2261,253.9106,0,U,49205,999,23472,.60402273E-4,.35E-6,0
ONEWEB-0340,2021-083W,2026-07-16T08:18:11.839968,13.18687667,.0001874,87.9198,329.6580,94.1019,266.0327,0,U,49206,999,23381,.61878822E-4,.37E-6,0
ONEWEB-0341,2021-083X,2026-07-16T10:17:09.794976,13.18687677,.00023015,87.9192,329.6430,89.9484,270.1912,0,U,49207,999,23384,-.16056017E-3,-.5E-6,0
ONEWEB-0342,2021-083Y,2026-07-16T10:35:43.370880,13.20773669,.00021551,87.9187,268.6075,100.3177,259.8199,0,U,49208,999,24064,.33282141E-3,.148E-5,0
ONEWEB-0343,2021-083Z,2026-07-16T08:40:02.892576,13.18687930,.00022394,87.9193,329.6552,105.9731,254.1648,0,U,49209,999,23388,.444028E-4,.3E-6,0
ONEWEB-0344,2021-083AA,2026-07-16T08:55:44.000256,13.13469814,.00022483,87.8977,314.4306,91.4553,268.6834,0,U,49210,999,23472,.12426303E-4,.17E-6,0
ONEWEB-0345,2021-083AB,2026-07-16T08:43:33.389760,13.13470227,.0002231,87.8987,314.4175,94.4765,265.6619,0,U,49211,999,23473,-.41228719E-3,-.138E-5,0
ONEWEB-0346,2021-083AC,2026-07-16T10:24:27.182880,13.18687277,.00014942,87.9189,329.6401,80.2341,279.8960,0,U,49212,999,23383,-.20257645E-3,-.67E-6,0
ONEWEB-0348,2021-083AD,2026-07-16T06:43:00.267744,13.20773046,.00020834,87.9188,268.6444,84.7429,275.3942,0,U,49213,999,24065,.16044171E-3,.78E-6,0
ONEWEB-0350,2021-083AE,2026-07-16T09:10:33.803616,13.13471931,.00016503,87.8983,314.4186,133.3215,226.8052,0,U,49214,999,23476,.61507961E-3,.237E-5,0
ONEWEB-0351,2021-083AF,2026-07-16T04:44:00.899232,13.20770886,.00026879,87.9190,268.6596,103.0152,257.1281,0,U,49215,999,24060,.47566463E-4,.32E-6,0
ONEWEB-0352,2021-083AG,2026-07-16T13:58:01.018272,13.13469567,.00023204,87.8979,314.3831,106.5053,253.6332,0,U,49216,999,23488,-.77867949E-3,-.272E-5,0
ONEWEB-0354,2021-083AH,2026-07-16T05:23:00.293280,13.20770980,.00021863,87.9186,268.6524,87.0639,273.0745,0,U,49217,999,24064,.13923268E-3,.7E-6,0
ONEWEB-0355,2021-083AJ,2026-07-16T14:40:38.823744,13.13469558,.0002145,87.8978,314.3779,100.0580,260.0791,0,U,49218,999,23476,.72266176E-3,.277E-5,0
ONEWEB-0357,2021-083AK,2026-07-16T05:18:08.707104,13.20770146,.00022586,87.9186,268.6472,100.7488,259.3900,0,U,49219,999,24064,.95663035E-4,.52E-6,0
ONEWEB-0332,2021-090A,2026-07-16T07:05:42.492480,13.14503244,.00020276,87.8965,283.9093,106.1389,253.9964,0,U,49279,999,23140,.33135852E-3,.136E-5,0
ONEWEB-0347,2021-090B,2026-07-16T14:09:03.237120,13.20769359,.00020421,87.9187,268.5819,105.6994,254.4364,0,U,49280,999,23492,-.10057155E-3,-.28E-6,0
ONEWEB-0349,2021-090C,2026-07-16T14:55:06.403296,13.20769288,.00021137,87.9183,268.5762,98.4777,261.6596,0,U,49281,999,23371,.14905228E-3,.74E-6,0
ONEWEB-0353,2021-090D,2026-07-16T06:54:17.621280,13.14502750,.00019962,87.8967,283.9072,107.4046,252.7302,0,U,49282,999,23140,.7828808E-5,.16E-6,0
ONEWEB-0356,2021-090E,2026-07-16T14:52:41.634912,13.20769777,.00012875,87.9184,268.5701,96.2113,263.9167,0,U,49283,999,23371,.99753315E-4,.54E-6,0
ONEWEB-0358,2021-090F,2026-07-16T06:39:20.632896,13.20772492,.00020133,87.9187,268.6452,96.1064,264.0299,0,U,49284,999,23439,-.1129673E-2,-.446E-5,0
ONEWEB-0359,2021-090G,2026-07-16T06:26:01.267872,13.20770084,.00020831,87.9189,268.6400,90.7355,269.4017,0,U,49285,999,23437,-.2360509E-3,-.83E-6,0
